A/2019 Y5,e,82.8363,51.7761,303.5020,794.7249,0.0000440,0.99381610,0.0000,08/18.1739/2019,2000,g 14.0,2.0
# From MPEC 2020-H67
A/2020 A1,e,149.0480,119.2786,302.7144,25.95304,0.0074546,0.93560967,1.0751,04/25.0/2020,2000,g 18.0,2.0
# From MPEC 2020-H67
C/2020 A2 (Iwamoto),e,120.7504,286.3791,68.2107,1089,0.0000274,0.99910219,0.0000,01/08.3220/2020,2000,g 13.5,4.0
# From MPEC 2020-H67
C/2020 A3 (ATLAS),h,06/29.5882/2019,146.7023,120.7816,268.4725,1.000165,5.768695,2000,8.0,4.0
# From MPEC 2020-H67
A/2020 B1,e,18.5122,310.0343,154.7879,52.17031,0.0026156,0.96650073,0.3166,04/25.0/2020,2000,g 21.0,2.0
# From MPEC 2020-H67
C/2020 B2 (Lemmon),e,55.7484,354.3146,143.8054,70.37250,0.0016696,0.96064402,0.1489,04/25.0/2020,2000,g 10.0,4.0
# From MPEC 2020-H67
C/2020 B3 (Rankin),e,20.7030,185.8246,325.0925,1842,0.0000125,0.99818396,0.0000,10/19.8818/2019,2000,g 13.0,4.0
# From MPEC 2020-H67
P/2020 F1 (Leonard),e,5.4360,136.6582,8.6840,6.827392,0.0552487,0.41659843,13.2490,04/25.0/2020,2000,g 12.0,4.0
# From MPEC 2020-H67
C/2020 F2 (ATLAS),h,07/16.8556/2022,163.5732,250.2489,48.3787,1.001869,8.816441,2000,4.5,4.0
# From MPEC 2020-H67
C/2020 F3 (NEOWISE),e,128.9332,61.0263,37.2057,541.2588,0.0000783,0.99945387,0.0000,07/03.7221/2020,2000,g 12.5,3.2
# From MPEC 2020-H67
P/2020 F4 (PANSTARRS),e,8.5295,98.1256,54.5238,4.334056,0.1092351,0.36827232,16.0094,04/25.0/2020,2000,g 16.0,2.4
# From MPEC 2020-H67
C/2020 F5 (MASTER),h,03/24.7851/2021,51.7221,350.7890,311.1542,1.011725,4.321705,2000,6.5,3.2
# From MPEC 2020-H67
C/2020 F6 (PANSTARRS),h,04/16.3301/2020,174.6203,207.7736,345.4711,1.049516,3.524006,2000,14.5,2.8
# From MPEC 2020-H67
A/2020 F7,e,93.9448,321.8864,228.0016,801.3261,0.0000435,0.99334726,0.0000,11/14.1840/2021,2000,g 12.0,2.0
# From MPEC 2020-H67
C/2020 F8 (SWAN),h,05/27.2274/2020,111.0489,260.1576,67.3446,1.020980,0.432089,2000,10.0,4.0
# From MPEC 2020-H67
P/2020 G1 (Pimentel),e,18.6741,239.5633,208.9373,4.210420,0.1140817,0.87858350,4.3552,04/25.0/2020,2000,g 17.0,4.0
# From  98, 1083
1P/Halley,e,162.3110,58.2200,111.1585,17.86966,0.0130476,0.96623014,163.3040,04/25.0/2020,2000,g  4.0,6.0
# From MPC118097
2P/Encke,e,11.7646,334.5524,186.5624,2.215278,0.2989247,0.84800302,341.5130,04/25.0/2020,2000,g 11.5,6.0
# From MPEC 2015-A10
4P/Faye,e,8.0124,193.3005,206.7826,3.825216,0.1317408,0.57828406,293.8611,04/25.0/2020,2000,g  8.0,6.0
# From MPEC 2015-S97
6P/d'Arrest,e,19.5108,138.9310,178.0807,3.498317,0.1506313,0.61252486,283.0568,04/25.0/2020,2000,g  9.0,4.0
# From MPEC 2015-E14
7P/Pons-Winnecke,e,22.3646,93.3808,172.5628,3.415573,0.1561381,0.63854925,298.0018,04/25.0/2020,2000,g  9.0,4.0
# From MPC 75715
8P/Tuttle,e,54.9119,270.2054,207.4952,5.701526,0.0723965,0.82000683,324.5379,04/25.0/2020,2000,g  9.0,4.0
# From MPEC 2019-JE2
9P/Tempel,e,10.4728,68.7361,179.3097,3.147355,0.1765166,0.50953693,240.1928,04/25.0/2020,2000,g  9.0,4.0
# From MPC114607
10P/Tempel,e,12.0397,117.8092,195.5088,3.060831,0.1840539,0.53846012,298.6534,04/25.0/2020,2000,g  5.0,10.0
# From MPEC 2017-L52
11P/Tempel-Swift-LINEAR,e,14.4209,238.9284,167.9086,3.284121,0.1656057,0.57705209,324.3636,04/25.0/2020,2000,g  9.0,4.0
# From  27, 604
12P/Pons-Brooks,e,74.0677,255.7037,199.0564,17.07574,0.0139680,0.95427420,339.6452,04/25.0/2020,2000,g  5.0,6.0
# From  27, 604
13P/Olbers,e,44.6272,85.8418,64.5735,16.66673,0.0144853,0.92975110,337.8606,04/25.0/2020,2000,g  5.0,6.0
# From MPC100283
14P/Wolf,e,27.9010,202.0863,158.9782,4.259370,0.1121208,0.35652844,98.1032,04/25.0/2020,2000,g  5.5,12.0
# From MPC 92276
15P/Finlay,e,6.7974,13.7212,347.8390,3.503925,0.1502698,0.71691229,293.1889,04/25.0/2020,2000,g 12.0,4.0
# From MPC 92276
16P/Brooks,e,3.0088,138.8997,245.1328,3.661016,0.1407024,0.48732670,309.6369,04/25.0/2020,2000,g  7.5,10.0
# From MPC114607
17P/Holmes,e,19.0242,326.6399,24.5256,3.637258,0.1420833,0.42824313,317.2379,04/25.0/2020,2000,g 10.0,6.0
# From MPC 92984
19P/Borrelly,e,29.4967,74.4985,351.8015,3.603452,0.1440874,0.63899108,266.7358,04/25.0/2020,2000,g  4.5,10.0
# From MPC111773
21P/Giacobini-Zinner,e,32.0077,195.3707,172.8468,3.496225,0.1507665,0.71057211,89.3546,04/25.0/2020,2000,g  9.0,6.0
# From MPC 94283
22P/Kopff,e,4.7417,120.8364,162.9501,3.443291,0.1542565,0.54886917,253.2606,04/25.0/2020,2000,g  3.0,10.4
# From MPC 14747
23P/Brorsen-Metcalf,e,19.1468,312.3650,128.8764,16.95626,0.0141159,0.97095043,0.0000,08/14.6613/1989,2000,g 10.0,6.0
# From MPC110085
24P/Schaumasse,e,11.7013,79.4804,57.7177,4.063683,0.1203163,0.70794398,106.9853,04/25.0/2020,2000,g  6.5,14.0
# From MPC 94674
26P/Grigg-Skjellerup,e,22.4463,211.5365,2.1942,3.013807,0.1883783,0.64072553,107.6182,04/25.0/2020,2000,g 12.0,16.0
# From MPC 78188
27P/Crommelin,e,29.1197,250.5760,196.0062,9.191564,0.0353688,0.91792589,113.0782,04/25.0/2020,2000,g 12.0,8.0
# From MPEC 2020-H67
28P/Neujmin,e,14.3112,346.3446,347.4321,6.971303,0.0535468,0.77365198,342.8143,04/25.0/2020,2000,g  8.5,6.0
# From MPEC 2020-H67
29P/Schwassmann-Wachmann,e,9.3669,312.3786,48.1276,6.031813,0.0665323,0.04388868,27.2465,04/25.0/2020,2000,g  4.0,4.0
# From MPC110085
30P/Reinmuth,e,8.4052,118.9525,12.7681,3.729257,0.1368581,0.51712576,133.0017,04/25.0/2020,2000,g  9.5,6.0
# From MPC108597
31P/Schwassmann-Wachmann,e,4.5473,114.1137,18.3032,4.242045,0.1128083,0.19254334,33.1851,04/25.0/2020,2000,g  5.0,8.0
# From MPC 92276
32P/Comas Sola,e,9.9352,57.5706,53.3643,4.497569,0.1033326,0.55732645,208.5405,04/25.0/2020,2000,g  6.5,8.0
# From MPEC 2013-O31
33P/Daniel,e,22.3396,66.3624,20.6382,4.081547,0.1195272,0.45290907,161.2313,04/25.0/2020,2000,g 10.0,12.0
# From  15, 452
35P/Herschel-Rigollet,e,64.629,356.325,29.098,28.5690,0.006454,0.9734087,0.000,12/23.6795/2091,2000,g  9.0,4.0
# From MPC105240
36P/Whipple,e,9.9528,181.8637,200.7682,4.130015,0.1174293,0.26837481,355.6993,04/25.0/2020,2000,g  8.5,6.0
# From MPEC 2018-HA5
37P/Forbes,e,8.9569,314.5652,330.0691,3.458891,0.1532141,0.53416111,110.5815,04/25.0/2020,2000,g 10.5,4.8
# From MPEC 2018-S50
38P/Stephan-Oterma,e,18.3536,77.9964,359.5523,11.26086,0.0260824,0.85897877,13.8522,04/25.0/2020,2000,g  3.5,12.0
# From MPC115887
39P/Oterma,e,1.5612,299.2559,94.9226,7.408986,0.0488726,0.22375751,305.6439,04/25.0/2020,2000,g  7.0,6.0
# From MPC100283
40P/Vaisala,e,11.4708,133.7870,47.4645,4.950197,0.0894891,0.63012688,178.0231,04/25.0/2020,2000,g  5.5,12.0
# From MPC105240
41P/Tuttle-Giacobini-Kresak,e,9.2214,141.0021,62.2616,3.085839,0.1818211,0.66040064,201.5857,04/25.0/2020,2000,g 10.0,16.0
# From MPC 94283
42P/Neujmin,e,3.9886,150.1976,147.1560,4.872970,0.0916249,0.58542976,168.7255,04/25.0/2020,2000,g 13.0,6.0
# From MPC102956
43P/Wolf-Harrington,e,9.4212,244.5436,223.9732,4.303383,0.1104051,0.44022380,147.0933,04/25.0/2020,2000,g  8.0,6.0
# From MPC 89313
44P/Reinmuth,e,5.8982,286.4833,58.1225,3.688930,0.1391084,0.42701399,258.6361,04/25.0/2020,2000,g  8.3,6.0
# From MPC103849
45P/Honda-Mrkos-Pajdusakova,e,4.3255,87.6988,327.9698,3.049685,0.1850639,0.81771487,224.7753,04/25.0/2020,2000,g 13.5,8.0
# From MPC114607
46P/Wirtanen,e,11.7443,82.1554,356.3684,3.091909,0.1812859,0.65841256,90.4941,04/25.0/2020,2000,g 14.0,6.0
# From NK 2718
47P/Ashbrook-Jackson,e,13.0330,356.9314,357.6020,4.125440,0.1176248,0.31778566,123.4695,04/25.0/2020,2000,g  9.0,4.0
# From MPEC 2015-M77
48P/Johnson,e,12.2081,110.1269,216.6087,3.500196,0.1505100,0.42730311,93.5580,04/25.0/2020,2000,g  9.0,4.0
# From MPEC 2015-M77
49P/Arend-Rigaux,e,19.0454,118.7989,332.9703,3.569888,0.1461242,0.59877296,94.9516,04/25.0/2020,2000,g  9.0,4.0
# From MPEC 2015-S97
50P/Arend,e,19.0967,355.1554,49.3546,4.089643,0.1191725,0.52848628,183.5510,04/25.0/2020,2000,g  9.5,6.0
# From NK 3013
51P-A/Harrington,e,5.4255,83.6757,269.2348,3.708564,0.1380052,0.54287591,237.1599,04/25.0/2020,2000,g 16.0,8.0
# From NK 3014
51P-A/Harrington,e,5.4247,83.6912,269.1955,3.709587,0.1379481,0.54294795,236.9097,04/25.0/2020,2000,g 10.0,8.0
# From NK 3014
51P-A/Harrington,e,5.4247,83.6913,269.1955,3.709569,0.1379491,0.54294486,236.9129,04/25.0/2020,2000,g 10.0,8.0
# From MPEC 2015-L08
51P-D/Harrington,e,5.4262,83.6812,269.1849,3.708654,0.1380002,0.54289009,237.1555,04/25.0/2020,2000,g 16.0,8.0
# From MPEC 2015-L08
51P-D/Harrington,e,5.4262,83.6802,269.1857,3.708642,0.1380008,0.54289067,237.1606,04/25.0/2020,2000,g 16.0,8.0
# From NK 3013
51P-D/Harrington,e,5.4255,83.6760,269.2345,3.708564,0.1380052,0.54287610,237.1600,04/25.0/2020,2000,g 16.0,8.0
# From NK 3013
51P-D/Harrington,e,5.4255,83.6760,269.2345,3.708564,0.1380052,0.54287623,237.1600,04/25.0/2020,2000,g 16.0,8.0
# From MPC 88330
52P/Harrington-Abell,e,10.2313,336.8380,139.6018,3.862051,0.1298605,0.53970299,291.3930,04/25.0/2020,2000,g 13.5,6.0
# From MPC100283
53P/Van Biesbroeck,e,6.6078,148.8418,134.3830,5.423996,0.0780234,0.55231841,113.5333,04/25.0/2020,2000,g  7.7,4.8
# From MPC 89011
54P/de Vico-Swift-NEAT,e,6.0608,358.8161,1.7645,3.793467,0.1333981,0.42530026,147.4426,04/25.0/2020,2000,g  9.0,4.0
# From MPC 31070
55P/Tempel-Tuttle,e,162.3717,235.4042,172.5469,10.34746,0.0296110,0.90675742,240.3719,04/25.0/2020,2000,g  9.0,4.0
# From MPC101100
56P/Slaughter-Burnham,e,8.1567,345.9793,44.0329,5.072607,0.0862695,0.50667368,118.7751,04/25.0/2020,2000,g  8.5,6.0
# From MPC 98565
57P/du Toit-Neujmin-Delporte,e,2.8500,188.7799,115.2097,3.447333,0.1539853,0.50071705,276.7829,04/25.0/2020,2000,g 12.5,6.0
# From MPEC 2020-H67
58P/Jackson-Neujmin,e,13.1065,159.0823,200.4572,4.082952,0.1194656,0.66262503,356.1234,04/25.0/2020,2000,g  5.5,10.0
# From MPC111774
59P/Kearns-Kwee,e,9.3413,312.8316,127.6334,4.490131,0.1035894,0.47485806,60.7497,04/25.0/2020,2000,g  7.0,6.0
# From MPEC 2015-M77
60P/Tsuchinshan,e,3.6055,267.5860,216.7099,3.515243,0.1495447,0.53741542,74.8769,04/25.0/2020,2000,g  9.0,4.0
# From MPEC 2015-Q71
61P/Shajn-Schaldach,e,5.9989,162.9882,221.9055,3.684642,0.1393513,0.42378679,232.8057,04/25.0/2020,2000,g  6.0,10.0
# From MPC109147
62P/Tsuchinshan,e,7.6967,86.1888,31.9589,3.331638,0.1620755,0.64985700,139.0650,04/25.0/2020,2000,g  8.0,10.0
